{
"type": "FeatureCollection",
"name": "vcf_4326",
"crs": { "type": "name", "properties": { "name": "urn:ogc:def:crs:OGC:1.3:CRS84" } },
"features": [
{ "type": "Feature", "properties": { "Id": 0 }, "geometry": { "type": "MultiLineString", "coordinates": [ [ [ 21.000171216258373, -20.000716262918601 ], [ 20.729648000019377, -20.000407999995272 ], [ 20.292752000008086, -20.000676999998294 ], [ 19.289046000000699, -20.002184999999894 ], [ 19.159002000000335, -20.002414 ], [ 19.152381777511756, -19.998425476230643 ], [ 19.00246800000026, -19.849911 ], [ 19.004993000000287, -19.720909 ], [ 19.001255000000214, -19.680561 ], [ 19.001920366978613, -19.655755119087495 ], [ 19.003303720890099, -19.614816742678002 ], [ 19.00769400000026, -19.572646 ], [ 19.085447000000176, -19.52618 ], [ 19.214268000000363, -19.494808 ], [ 19.20260100000041, -19.413447 ], [ 19.208916000000318, -19.355391999999856 ], [ 19.202903000000354, -19.284136999999898 ], [ 19.203907076259249, -19.214240222600203 ], [ 19.201231266336137, -19.080831932271273 ], [ 19.203718501613718, -19.000894903403996 ], [ 19.203502000000238, -18.904952999999843 ], [ 19.203347000000207, -18.806936 ], [ 18.93139, -18.791388 ], [ 18.930989000000142, -18.791729 ], [ 18.930619, -18.791462 ], [ 18.930752, -18.791166 ], [ 18.930654000000132, -18.791124 ], [ 18.930718762525057, -18.788389923415583 ], [ 18.93225, -18.758914 ], [ 18.957824, -18.761877 ], [ 18.97584373463658, -18.741973857569693 ], [ 18.979184142758879, -18.738253476391876 ], [ 18.995422148812811, -18.721834605043508 ], [ 19.012984016446811, -18.703985955950099 ], [ 19.02334927756203, -18.693476740513184 ], [ 19.035436827775115, -18.68118995929586 ], [ 19.045244097065119, -18.671201846003655 ], [ 19.058912623170006, -18.657252852858544 ], [ 19.067728421717092, -18.648402298120061 ], [ 19.07611535912103, -18.638982752598061 ], [ 19.082886266060186, -18.631398112548197 ], [ 19.08677753695358, -18.627035486716014 ], [ 19.091251690783846, -18.621992593310104 ], [ 19.098939572282557, -18.613397063097185 ], [ 19.108635453504675, -18.602461398828773 ], [ 19.110904350578988, -18.599927451212555 ], [ 19.113150193374192, -18.597560975036938 ], [ 19.115969906558441, -18.594600320599863 ], [ 19.118987270196826, -18.591422392857087 ], [ 19.125433352323807, -18.584587758245064 ], [ 19.127216000000118, -18.582892 ], [ 19.126564000000112, -18.582375 ], [ 19.126513000000116, -18.582347 ], [ 18.863494, -18.570028 ], [ 18.622061, -18.558445 ], [ 18.533378, -18.554124 ], [ 18.216123082528341, -18.538234905096374 ], [ 18.16019, -18.535479 ], [ 17.999001, -18.527252 ], [ 17.99903, -18.527431 ], [ 17.998423, -18.527418 ], [ 17.998348, -18.527247 ], [ 17.998305553817126, -18.527277774849786 ], [ 17.99848, -18.52823 ], [ 17.998467981142358, -18.6190009241692 ], [ 17.969097, -18.630335 ], [ 17.96512, -18.63 ], [ 17.956035, -18.633095 ], [ 17.920545372407474, -18.627140676692918 ], [ 17.914749600984074, -18.625137771983077 ], [ 17.910432148553213, -18.625208704749969 ], [ 17.871297417756129, -18.617503956912241 ], [ 17.852793482312752, -18.614033520260364 ], [ 17.837441, -18.611052 ], [ 17.838050000000138, -18.579426 ], [ 17.813033308953848, -18.577720281534486 ], [ 17.802436474296012, -18.576994190766047 ], [ 17.79612737757763, -18.576563209643556 ], [ 17.778464300713171, -18.57534767505873 ], [ 17.77129631618185, -18.574851281341633 ], [ 17.767532, -18.574555 ], [ 17.764873381696574, -18.573469890428726 ], [ 17.760454, -18.572417 ], [ 17.724235, -18.568544 ], [ 17.72313, -18.568726999999896 ], [ 17.72186, -18.568124 ], [ 17.663869, -18.561788 ], [ 17.664199, -18.509743 ], [ 17.664147, -18.509804 ], [ 17.664142, -18.509757 ], [ 17.49911, -18.500845 ], [ 17.498415, -18.515678 ], [ 17.498906, -18.515693 ], [ 17.499067000000139, -18.517259 ], [ 17.498424, -18.517225 ], [ 17.495418653453342, -18.5859199351091 ], [ 17.494726000000128, -18.603709 ], [ 17.49468300000013, -18.603718 ], [ 17.494462, -18.60383 ], [ 17.494398, -18.603857 ], [ 17.494277735260152, -18.603916638957514 ], [ 17.488071683546046, -18.604184883398016 ], [ 17.471626909135505, -18.605091471512178 ], [ 17.436434028511318, -18.6068794080477 ], [ 17.392434237877758, -18.609339536870209 ], [ 17.369922437233662, -18.610496608757593 ], [ 17.347473084727202, -18.611565381997309 ], [ 17.336920292965438, -18.612066852743681 ], [ 17.171617, -18.620324 ], [ 17.17176, -18.622804 ], [ 17.171468, -18.622788 ], [ 17.171305, -18.622737 ], [ 17.168653, -18.622893 ], [ 17.168619000000103, -18.622888 ], [ 17.168222, -18.622929 ], [ 17.168255, -18.622905 ], [ 17.167345, -18.6229 ], [ 17.167248, -18.622804 ], [ 17.166821, -18.620612 ], [ 17.161957412302304, -18.620801038491361 ], [ 17.144801, -18.62077 ], [ 17.027935, -18.620297 ], [ 17.027261000000138, -18.731022 ], [ 17.027183, -18.748289 ], [ 17.038776, -18.764908 ], [ 17.042419, -18.803444 ], [ 17.043262000000141, -18.803341 ], [ 17.043288, -18.803496 ], [ 17.043372, -18.803686 ], [ 17.061462, -18.881733 ], [ 17.077427, -18.940087 ], [ 17.124541, -19.163867 ], [ 17.127316, -19.175789 ], [ 17.127312, -19.175907 ], [ 17.127257, -19.176012 ], [ 17.127176000000148, -19.17612 ], [ 17.114737, -19.189507 ], [ 17.115847, -19.205268 ], [ 17.109735921620448, -19.212422321968187 ], [ 17.100915877609399, -19.222762658571231 ], [ 17.084479421869137, -19.241491077201619 ], [ 17.034552000000122, -19.297621 ], [ 17.012474888746528, -19.322488499899698 ], [ 16.990682, -19.346782 ], [ 16.894735, -19.389431 ], [ 16.701654830000116, -19.486848397999889 ], [ 16.599434, -19.436566 ], [ 16.485402, -19.43549 ], [ 16.40952, -19.418655 ], [ 16.355937, -19.416949 ], [ 16.230687, -19.388242999999864 ], [ 16.184361, -19.36957 ], [ 16.134737, -19.365918 ], [ 16.060522, -19.347466 ], [ 15.99331, -19.336246 ], [ 15.940901000000119, -19.330697 ], [ 15.937392, -19.330236 ], [ 15.850555556863002, -19.283916656915313 ], [ 15.791624337201192, -19.283769170958401 ], [ 15.761744029157397, -19.284672136400882 ], [ 15.702170000000132, -19.273688 ], [ 15.628235, -19.257905 ], [ 15.560451, -19.245714 ], [ 15.550816, -19.235892 ], [ 15.522844, -19.242532 ], [ 15.510420046655479, -19.245743063263248 ], [ 15.420228, -19.239132 ], [ 15.369801, -19.247824 ], [ 15.31418, -19.246168 ], [ 15.317289, -19.191497 ], [ 15.201605, -19.224494 ], [ 15.147364406387975, -19.212953160107492 ], [ 15.090014, -19.205425 ], [ 15.030933999999839, -19.208529 ], [ 14.913509153762663, -19.234963126818233 ], [ 14.871648375443463, -19.235368064873885 ], [ 14.815522082251228, -19.236422341554235 ], [ 14.687572999999544, -19.234486999999838 ], [ 14.680094419972765, -19.234416577902063 ], [ 14.675367758888775, -19.234337488231834 ], [ 14.654010479529228, -19.234211847692325 ], [ 14.649029174177279, -19.234273324904077 ], [ 14.64816617505482, -19.234363985677742 ], [ 14.634157901965594, -19.235973446343767 ], [ 14.621598784278827, -19.237363126691879 ], [ 14.616102707645931, -19.238027376008603 ], [ 14.600586446942767, -19.23978317206516 ], [ 14.586445524713339, -19.241369461858298 ], [ 14.536197999999441, -19.246788999999794 ], [ 14.538536999999444, -19.329043999999826 ], [ 14.594108999999431, -19.326708999999859 ], [ 14.587198999999375, -19.417414999999849 ], [ 14.48189999999915, -19.417581999999769 ], [ 14.474657557425299, -19.417567903485775 ], [ 14.467862999999266, -19.416635999999773 ], [ 14.449527777712639, -19.414472222198199 ], [ 14.455638887812224, -19.388749999064586 ], [ 14.455944441932013, -19.387361114531089 ], [ 14.455981880381295, -19.387222159154188 ], [ 14.456105999999195, -19.385550999999747 ], [ 14.45609699999917, -19.385394999999786 ], [ 14.456080999999108, -19.38530099999975 ], [ 14.45603799999909, -19.385128999999729 ], [ 14.456035999999092, -19.385098999999727 ], [ 14.455970999999209, -19.384975999999767 ], [ 14.455964999999056, -19.384889999999761 ], [ 14.455966999999044, -19.384624999999794 ], [ 14.456050999999068, -19.384379999999744 ], [ 14.456048999999126, -19.383976999999792 ], [ 14.455949999999085, -19.383194999999777 ], [ 14.456050999999064, -19.38305999999978 ], [ 14.455914999999179, -19.382732999999803 ], [ 14.455679999999159, -19.379401999999811 ], [ 14.455787999999156, -19.3790429999998 ], [ 14.455770999999185, -19.378707999999786 ], [ 14.45618330033834, -19.37706666145538 ], [ 14.458463999999061, -19.372067999999778 ], [ 14.458724999999198, -19.37199599999979 ], [ 14.459095999999175, -19.371371999999788 ], [ 14.459405999999259, -19.370718999999724 ], [ 14.459347999999235, -19.370457999999655 ], [ 14.460261999999192, -19.369289999999658 ], [ 14.461489999999172, -19.368156999999769 ], [ 14.465423999999079, -19.365477999999719 ], [ 14.465702999999291, -19.365427999999739 ], [ 14.465767999999112, -19.365239999999766 ], [ 14.470458999999172, -19.362063999999766 ], [ 14.471117999999166, -19.361533999999793 ], [ 14.472198999999216, -19.360298999999664 ], [ 14.480228999999317, -19.346836999999788 ], [ 14.480920999999169, -19.345346999999787 ], [ 14.481298999999179, -19.34391699999976 ], [ 14.482862999999281, -19.329772999999715 ], [ 14.482858999999342, -19.329685999999707 ], [ 14.482699172549939, -19.326999237030989 ], [ 14.482284862876796, -19.317231790657001 ], [ 14.481664999999287, -19.315805999999796 ], [ 14.477126999999149, -19.306661999999758 ], [ 14.473909999999259, -19.299496999999718 ], [ 14.473539999999204, -19.298378999999745 ], [ 14.473308999999297, -19.297214999999714 ], [ 14.473213999999263, -19.296113999999779 ], [ 14.473170999999253, -19.293375999999704 ], [ 14.473258999999246, -19.293264999999749 ], [ 14.473154999999355, -19.292885999999736 ], [ 14.472954999999283, -19.284242999999787 ], [ 14.472786999999249, -19.283880999999745 ], [ 14.472491999999196, -19.283411999999785 ], [ 14.471913999999298, -19.282983999999786 ], [ 14.471244999999229, -19.282480999999812 ], [ 14.468320999999213, -19.28113899999973 ], [ 14.467722999999292, -19.280507999999735 ], [ 14.467385999999298, -19.280195999999766 ], [ 14.46699299999927, -19.278992999999801 ], [ 14.466275999999315, -19.272240999999802 ], [ 14.466091999999147, -19.272054999999749 ], [ 14.465201999999238, -19.270428999999698 ], [ 14.464103999999333, -19.26986699999976 ], [ 14.459261999999267, -19.26923499999976 ], [ 14.458414999999201, -19.268734999999779 ], [ 14.45579299999911, -19.265803999999729 ], [ 14.447684999999217, -19.257431999999699 ], [ 14.447634999999117, -19.256972999999689 ], [ 14.44698499999917, -19.256289999999755 ], [ 14.446083999999225, -19.255752999999789 ], [ 14.44454899999922, -19.254278999999752 ], [ 14.439932999999215, -19.249626999999737 ], [ 14.439442999999152, -19.248897999999713 ], [ 14.438705999999291, -19.248385999999691 ], [ 14.436484999999157, -19.246595999999752 ], [ 14.436170999999156, -19.245968999999757 ], [ 14.434958999999258, -19.245288999999772 ], [ 14.434260999999189, -19.245073999999754 ], [ 14.433140999999061, -19.244840999999774 ], [ 14.42537499999923, -19.244759999999726 ], [ 14.422574999999178, -19.244614999999705 ], [ 14.421169999999245, -19.24437599999974 ], [ 14.420319999999077, -19.244024999999709 ], [ 14.419470999999177, -19.243346999999673 ], [ 14.418327999999088, -19.242250999999751 ], [ 14.417826999999228, -19.241006999999758 ], [ 14.417760999999127, -19.241037999999747 ], [ 14.417916999999232, -19.242343999999751 ], [ 14.419268999999165, -19.244019999999669 ], [ 14.416803999999122, -19.244772999999707 ], [ 14.416817999999031, -19.244791999999766 ], [ 14.387536999999041, -19.247592999999718 ], [ 14.385277999998996, -19.247537999999746 ], [ 14.383057999999149, -19.246012999999717 ], [ 14.361616999999098, -19.256842999999702 ], [ 14.351603589278023, -19.297213247942018 ], [ 14.341649999998905, -19.339518999999612 ], [ 14.34007999999883, -19.346571999999664 ], [ 14.338885999998809, -19.348067999999621 ], [ 14.337277999998777, -19.349601999999621 ], [ 14.335689999998854, -19.351798999999712 ], [ 14.33416999999881, -19.353143999999617 ], [ 14.333483842217612, -19.354355128372749 ], [ 14.332164999998863, -19.356682999999602 ], [ 14.336850000025185, -19.362149997229803 ], [ 14.331089999998865, -19.392624999999629 ], [ 14.332085999998855, -19.401456999999606 ], [ 14.329717999998856, -19.414525999999697 ], [ 14.329686999998749, -19.420745999999625 ], [ 14.330166581077226, -19.420633361634845 ], [ 14.329527999998763, -19.423535999999618 ], [ 14.326803999998742, -19.428690999999574 ], [ 14.321601999998714, -19.429335999999651 ], [ 14.318040999998777, -19.426064999999593 ], [ 14.312564999998651, -19.424836999999673 ], [ 14.306177999998587, -19.440867999999607 ], [ 14.308706999998581, -19.446219999999588 ], [ 14.309739999998659, -19.448924999999569 ], [ 14.312821999998556, -19.451929999999614 ], [ 14.310516999998629, -19.4571939999996 ], [ 14.308099999998634, -19.457933999999625 ], [ 14.306199999998652, -19.45960999999966 ], [ 14.306368999998559, -19.463518999999593 ], [ 14.307066999998614, -19.46528999999963 ], [ 14.306212999998651, -19.466520999999656 ], [ 14.305053999998671, -19.473074999999643 ], [ 14.307770999998583, -19.48100899999962 ], [ 14.307974999998581, -19.482507999999584 ], [ 14.30777299999858, -19.484861999999669 ], [ 14.306723999998598, -19.48716299999964 ], [ 14.305923999998681, -19.490981999999619 ], [ 14.306072999998605, -19.494447999999576 ], [ 14.306775999998642, -19.497138999999642 ], [ 14.305747999998664, -19.502905999999587 ], [ 14.30362599999861, -19.50414199999965 ], [ 14.303557999998661, -19.506016999999638 ], [ 14.298713999998599, -19.513658999999613 ], [ 14.296461999998586, -19.517952999999611 ], [ 14.299278999998565, -19.53236199999963 ], [ 14.29893999999862, -19.53520099999961 ], [ 14.300496999998451, -19.537265999999576 ], [ 14.303928999998622, -19.543675999999657 ], [ 14.3036339999985, -19.546141999999563 ], [ 14.302415999998606, -19.548512999999662 ], [ 14.303269999998548, -19.552845999999587 ], [ 14.300809999998618, -19.558453999999632 ], [ 14.299929999998614, -19.562544999999641 ], [ 14.297394999998467, -19.568913999999648 ], [ 14.29524399999846, -19.57860099999964 ], [ 14.29322299999855, -19.585306999999638 ], [ 14.290747999998363, -19.588877999999596 ], [ 14.290482999998455, -19.592145999999641 ], [ 14.291171999998484, -19.592917999999578 ], [ 14.288812999998511, -19.598628999999598 ], [ 14.285451999998395, -19.604381999999628 ], [ 14.285011999998357, -19.6081219999996 ], [ 14.285077999998363, -19.609774999999651 ], [ 14.284769999998451, -19.613422999999642 ], [ 14.285817999998494, -19.61713999999964 ], [ 14.286462999998333, -19.620346999999594 ], [ 14.285690999998407, -19.621504999999644 ], [ 14.284346999998432, -19.629001999999634 ], [ 14.283110999998463, -19.630713999999632 ], [ 14.283177999998298, -19.633065999999552 ], [ 14.280544999998407, -19.63651399999954 ], [ 14.279098999998292, -19.639046999999628 ], [ 14.275103999998302, -19.643537999999591 ], [ 14.270905999998408, -19.649791999999593 ], [ 14.27054542661525, -19.651659440095532 ], [ 14.270298802481571, -19.65325560928051 ], [ 14.269279432899154, -19.659232481921265 ], [ 14.269033967380921, -19.661224054448663 ], [ 14.268980892969852, -19.661313943126107 ], [ 14.268879999998269, -19.661347999999581 ], [ 14.260677999998128, -19.661439999999565 ], [ 14.256619999998298, -19.659728999999572 ], [ 14.256112999998276, -19.659403999999608 ], [ 14.254498999998312, -19.657397999999596 ], [ 14.253478999998265, -19.656550999999521 ], [ 14.253446999998291, -19.656586999999604 ], [ 14.25331599999827, -19.65682799999961 ], [ 14.251438999998225, -19.656067999999589 ], [ 14.248267999998207, -19.655655999999606 ], [ 14.247444444800987, -19.664722222064693 ], [ 14.247448999998278, -19.664723999999559 ], [ 14.243621999998117, -19.676966999999504 ], [ 14.242603999998135, -19.680794999999499 ], [ 14.23218299999805, -19.68483799999952 ], [ 14.207592939997877, -19.740933281999492 ], [ 14.19252299999776, -19.741324999999527 ], [ 14.191099999997764, -19.74524299999954 ], [ 14.191249999997781, -19.746922999999452 ], [ 14.19186999999769, -19.749700999999533 ], [ 14.190702999997788, -19.753820999999547 ], [ 14.19030899999786, -19.757048999999448 ], [ 14.187953999997644, -19.759861999999519 ], [ 14.188958999997686, -19.760751999999538 ], [ 14.188401999997771, -19.762899999999512 ], [ 14.184433999997699, -19.772916999999403 ], [ 14.184087999997697, -19.776880999999463 ], [ 14.18473499999773, -19.779799999999472 ], [ 14.184484999997659, -19.781178999999455 ], [ 14.184580999997598, -19.783865999999367 ], [ 14.185388999997651, -19.784782999999518 ], [ 14.18474399999775, -19.787062999999488 ], [ 14.185057999997802, -19.789681999999466 ], [ 14.184915999997589, -19.791909999999522 ], [ 14.184265999997633, -19.792872999999425 ], [ 14.184680999997717, -19.793924999999508 ], [ 14.182596999997747, -19.796527999999526 ], [ 14.181296999997663, -19.796744999999429 ], [ 14.17893099999759, -19.800477999999504 ], [ 14.175492999997713, -19.801381999999492 ], [ 14.174545999997655, -19.802038999999468 ], [ 14.172625999997599, -19.808188999999405 ], [ 14.173206999997563, -19.809472999999507 ], [ 14.17001199999765, -19.813075999999455 ], [ 14.165864999997499, -19.822140999999373 ], [ 14.164651647442739, -19.822658525067748 ], [ 14.162182514416559, -19.823880011386429 ], [ 14.160199778885772, -19.824989814901791 ], [ 14.156515999997525, -19.826979999999402 ], [ 14.148175999997296, -19.831260999999323 ], [ 14.147671999997371, -19.831602999999355 ], [ 14.14048299999739, -19.835395999999388 ], [ 14.137366676535656, -19.83538332949184 ], [ 14.095099975282675, -19.841816662288295 ], [ 14.08902899999693, -19.84629299999937 ], [ 14.088087999997011, -19.849475999999289 ], [ 14.083323999996956, -19.852348999999293 ], [ 14.081488999996848, -19.852311999999333 ], [ 14.080190999996887, -19.852359999999329 ], [ 14.077167999996874, -19.852545999999357 ], [ 14.073629999996836, -19.852675999999246 ], [ 14.071890999996857, -19.852110999999308 ], [ 14.070078999996817, -19.85173899999932 ], [ 14.061550999996728, -19.849176999999251 ], [ 14.057880999996767, -19.848505999999237 ], [ 14.054967980118979, -19.84575553498232 ], [ 14.053488999996812, -19.844480999999259 ], [ 14.047611999996697, -19.844045999999285 ], [ 14.045545999996612, -19.844762999999229 ], [ 14.04277699999664, -19.844736999999292 ], [ 14.036841999996513, -19.842020999999182 ], [ 14.031599999996519, -19.842590999999178 ], [ 14.031186999996425, -19.84241499999926 ], [ 14.029704999996557, -19.842996999999272 ], [ 14.0291299999966, -19.843401999999219 ], [ 14.027847999996533, -19.843675999999263 ], [ 14.023886999996549, -19.843659999999236 ], [ 14.020974999996424, -19.844313999999169 ], [ 14.019504999996492, -19.843812999999191 ], [ 14.017035999996443, -19.845536999999204 ], [ 14.016285999996386, -19.845671999999141 ], [ 14.011732999996367, -19.846075999999183 ], [ 14.008550999996297, -19.846445999999212 ], [ 13.989568999996248, -19.847974999999117 ], [ 13.983958999996137, -19.849024999999131 ], [ 13.98332899999607, -19.849931999999097 ], [ 13.981823999996049, -19.849990999999129 ], [ 13.979442999996024, -19.849459999999162 ], [ 13.977687999996101, -19.851727999999113 ], [ 13.976303999995942, -19.853795999999072 ], [ 13.975589999996041, -19.856418999999157 ], [ 13.972229999996012, -19.857512999999049 ], [ 13.968851999995882, -19.857609999999141 ], [ 13.9665359999959, -19.859182999999085 ], [ 13.961234999995794, -19.86678399999909 ], [ 13.950777999995768, -19.874292999999096 ], [ 13.949244999995674, -19.880246999999017 ], [ 13.949060999995734, -19.883054999999082 ], [ 13.948956999995643, -19.884069999999092 ], [ 13.948748999995658, -19.884252999998996 ], [ 13.943621999995591, -19.888798999999 ], [ 13.933217999995472, -19.896579999999002 ], [ 13.921105999995383, -19.896487999998911 ], [ 13.910342999995198, -19.902003999998946 ], [ 13.908446999995189, -19.9018619999989 ], [ 13.906440999995127, -19.898722999998967 ], [ 13.904200999995187, -19.896756999998921 ], [ 13.897370999995077, -19.89664899999897 ], [ 13.892873999995064, -19.897882999998892 ], [ 13.890659999995009, -19.89967399999891 ], [ 13.888408999995082, -19.902615999998822 ], [ 13.882544999994913, -19.904467999998896 ], [ 13.879977999994951, -19.903356999998902 ], [ 13.877921999994824, -19.903627999998854 ], [ 13.87794299999493, -19.911678999998866 ], [ 13.872842999994775, -19.917280999998809 ], [ 13.867232999994643, -19.91861499999877 ], [ 13.864502999994688, -19.920285999998818 ], [ 13.863474999994546, -19.921266999998821 ], [ 13.860180999994606, -19.928799999998837 ], [ 13.859527999994587, -19.932104999998742 ], [ 13.855647999994437, -19.933333999998826 ], [ 13.845022999994351, -19.937749999998783 ], [ 13.833424999994167, -19.932711999998734 ], [ 13.829551999994118, -19.932504999998734 ], [ 13.82658299999407, -19.933527999998692 ], [ 13.822157999993971, -19.933209999998684 ], [ 13.821195999993943, -19.933720999998638 ], [ 13.820528999994016, -19.938136999998637 ], [ 13.816791999994001, -19.944898999998653 ], [ 13.816893999993905, -19.94873699999869 ], [ 13.819825999994041, -19.952170999998735 ], [ 13.826888999994093, -19.957310999998672 ], [ 13.838326999994143, -19.972300999998726 ], [ 13.841603999994254, -19.974588999998705 ], [ 13.845198742697375, -19.988076862427707 ], [ 13.845422183985111, -19.988756094236653 ], [ 13.846265999994181, -19.992080999998777 ], [ 13.846297999994185, -19.99208399999878 ], [ 13.847679573466928, -19.994721865349341 ], [ 13.847989840916012, -19.995271674292191 ], [ 13.853968971363582, -20.006843622990047 ], [ 13.855485064011972, -20.009852214946552 ], [ 13.857581769564938, -20.013798551801202 ], [ 13.860701081448129, -20.019830967692606 ], [ 13.872280999994391, -20.04189199999886 ], [ 13.879717999994472, -20.04501399999889 ], [ 13.895923999994686, -20.042073999998941 ], [ 13.900594999994761, -20.041768999998951 ], [ 13.903178999994864, -20.039513999998896 ], [ 13.905761999994818, -20.039287999998962 ], [ 13.909528999994851, -20.039850999998972 ], [ 13.909734999994864, -20.039938999998963 ], [ 13.918799999995061, -20.03703799999899 ], [ 13.923976999995009, -20.036313999998956 ], [ 13.927198999995163, -20.036668999999026 ], [ 13.931558999995167, -20.037937999998967 ], [ 13.934200999995104, -20.039078999999042 ], [ 13.938192999995241, -20.040506999998925 ], [ 13.942358999995193, -20.040635999998926 ], [ 13.94489899999521, -20.044130999998945 ], [ 13.947431999995208, -20.044177999998993 ], [ 13.949173999995331, -20.044839999999109 ], [ 13.950039999995408, -20.048086999999075 ], [ 13.949938999995375, -20.049598999999013 ], [ 13.950200999995388, -20.054008999999024 ], [ 13.94679899999524, -20.056911999999084 ], [ 13.946282999995342, -20.05887199999907 ], [ 13.943772999995291, -20.061330999999065 ], [ 13.941950999995171, -20.064880999999037 ], [ 13.944391803642869, -20.06684792497542 ], [ 13.945409999995194, -20.067690999999073 ], [ 13.948179999995208, -20.077910999999077 ], [ 13.947713564754537, -20.082920898504085 ], [ 13.947152999995144, -20.088198999998976 ], [ 13.947107999995136, -20.088165999999006 ], [ 13.944875999995144, -20.100290999999054 ], [ 13.943681999995128, -20.102972999999071 ], [ 13.943568999995092, -20.108917999999068 ], [ 13.94388499999523, -20.113340999999036 ], [ 13.942180999995079, -20.115216999999046 ], [ 13.939077999995027, -20.115679999999035 ], [ 13.935662646799754, -20.116698943477569 ], [ 13.932155032327755, -20.117873354110593 ], [ 13.924258999994839, -20.120321999999003 ], [ 13.921573113508501, -20.119104249238042 ], [ 13.915307999994736, -20.116428999998977 ], [ 13.913258999994811, -20.117016999998896 ], [ 13.912271999994669, -20.119520999999011 ], [ 13.9106349999947, -20.120296999998967 ], [ 13.908149999994617, -20.121231999998937 ], [ 13.907177999994621, -20.123044999998967 ], [ 13.904009999994683, -20.123096999998999 ], [ 13.903363263729991, -20.123230463039981 ], [ 13.903097999994687, -20.123338999998957 ], [ 13.902318072327544, -20.124164016756449 ], [ 13.901159999994558, -20.12597099999882 ], [ 13.90171399999452, -20.128688999998896 ], [ 13.902573999994615, -20.133128999998956 ], [ 13.90103899999454, -20.13459999999893 ], [ 13.900962540100496, -20.134751627327471 ], [ 13.901078685916398, -20.135137287499084 ], [ 13.901719999994521, -20.136160999998943 ], [ 13.902115999994539, -20.136974999998959 ], [ 13.902963999994613, -20.137560999998907 ], [ 13.903455999994554, -20.138318999998962 ], [ 13.903828486110726, -20.138622603400108 ], [ 13.904088322094559, -20.13883438746868 ], [ 13.904477999994597, -20.139151999998926 ], [ 13.90545799999453, -20.139902999998959 ], [ 13.90553699999456, -20.140637999998958 ], [ 13.907539602168354, -20.142751720653052 ], [ 13.907573999994652, -20.142905999998941 ], [ 13.907502011514371, -20.14309944147648 ], [ 13.905151999994597, -20.145061999998898 ], [ 13.903172999994611, -20.14835999999892 ], [ 13.903160081213294, -20.14864449359272 ], [ 13.903148680831752, -20.149062067945305 ], [ 13.903164255869592, -20.149874019173602 ], [ 13.90325215009633, -20.150544006118356 ], [ 13.903393485122836, -20.150814874471063 ], [ 13.903452999994514, -20.151240999998961 ], [ 13.903381999994517, -20.151980999998948 ], [ 13.905378999994539, -20.153867999998965 ], [ 13.907969999994533, -20.155175999998885 ], [ 13.911113999994669, -20.153306999998964 ], [ 13.916826999994742, -20.152691999998986 ], [ 13.919479999994731, -20.154440999999018 ], [ 13.921714999994743, -20.15441799999903 ], [ 13.925987999994778, -20.155524999999027 ], [ 13.931978999994854, -20.155422999999029 ], [ 13.933946999994888, -20.155895999999046 ], [ 13.935666999995028, -20.158379999999063 ], [ 13.934152999994957, -20.162726999998991 ], [ 13.933956999994937, -20.165483999999019 ], [ 13.9340609999948, -20.167444999999024 ], [ 13.929663999994917, -20.167990999999056 ], [ 13.928455999994773, -20.16996499999895 ], [ 13.926968999994815, -20.170080999998941 ], [ 13.928039999994853, -20.172215999998954 ], [ 13.927974999994772, -20.174043999998929 ], [ 13.928785999994908, -20.175364999999026 ], [ 13.930765999994794, -20.17708399999896 ], [ 13.932062999994843, -20.180120999998959 ], [ 13.933541999994805, -20.181233999999058 ], [ 13.934492999994829, -20.183755999999029 ], [ 13.934484999994865, -20.18605399999905 ], [ 13.937929999994845, -20.187679999999052 ], [ 13.941383999994866, -20.190605999999054 ], [ 13.943447999994902, -20.194702999999002 ], [ 13.941676999994908, -20.195489999998994 ], [ 13.936337999994814, -20.196514999999046 ], [ 13.93532499999481, -20.198905999999035 ], [ 13.933335999994773, -20.199312999999051 ], [ 13.93133099999476, -20.200316999998968 ], [ 13.927962999994804, -20.201786999998991 ], [ 13.92677799999475, -20.204567999998964 ], [ 13.92607099999471, -20.209432999999002 ], [ 13.926226999994633, -20.21165599999896 ], [ 13.926743999994761, -20.21328099999895 ], [ 13.919770999994704, -20.218116999998966 ], [ 13.918115999994473, -20.22403199999896 ], [ 13.906269999994366, -20.231071999998946 ], [ 13.902676999994409, -20.231897999998903 ], [ 13.891211999994173, -20.233078999998927 ], [ 13.883774999994053, -20.232970999998916 ], [ 13.88321799999405, -20.231564999998913 ], [ 13.876976999993973, -20.232927999998896 ], [ 13.863968999993791, -20.232867999998835 ], [ 13.851828999993627, -20.232399999998815 ], [ 13.834432999993377, -20.232010999998749 ], [ 13.830439999993304, -20.232426999998726 ], [ 13.825354999993218, -20.233169999998729 ], [ 13.819402365611005, -20.233290339924416 ], [ 13.806821999992927, -20.23354399999867 ], [ 13.80361499999289, -20.23263499999867 ], [ 13.794200065593541, -20.236981612943762 ], [ 13.749425999991923, -20.257311999998485 ], [ 13.742632999991784, -20.257065999998456 ], [ 13.735445999991729, -20.254418999998329 ], [ 13.681396999990515, -20.280836999998147 ], [ 13.658637999990017, -20.299646999997975 ], [ 13.618385620153768, -20.317729903920767 ], [ 13.609240999988753, -20.322045999997851 ], [ 13.579340999987902, -20.335472999997606 ], [ 13.573560999987912, -20.336729999997658 ], [ 13.550323999987164, -20.343094999997486 ], [ 13.548236999987097, -20.343525999997503 ], [ 13.538924999986973, -20.34903299999749 ], [ 13.534467999986816, -20.351903999997432 ], [ 13.532265999986629, -20.353079999997345 ], [ 13.525029999986499, -20.355566999997396 ], [ 13.521099999986312, -20.353162999997348 ], [ 13.5199049999863, -20.353128999997349 ], [ 13.519114355654692, -20.353368772093564 ], [ 13.514542999986093, -20.354754999997276 ], [ 13.504486999985845, -20.353605999997274 ], [ 13.477127999985106, -20.351806999997027 ], [ 13.474564999985063, -20.352569999997069 ], [ 13.243201524099495, -20.35862578923113 ] ] ] } },
{ "type": "Feature", "properties": { "Id": 0 }, "geometry": { "type": "MultiLineString", "coordinates": [ [ [ 18.930619, -18.791462 ], [ 18.930989000000142, -18.791729 ] ] ] } },
{ "type": "Feature", "properties": { "Id": 0 }, "geometry": { "type": "MultiLineString", "coordinates": [ [ [ 21.000171216258373, -20.000716262918601 ], [ 20.729648000019377, -20.000407999995272 ], [ 20.292752000008086, -20.000676999998294 ], [ 19.289046000000699, -20.002184999999894 ], [ 19.159002000000335, -20.002414 ], [ 19.152381777511756, -19.998425476230643 ], [ 19.00246800000026, -19.849911 ], [ 19.004993000000287, -19.720909 ], [ 19.001255000000214, -19.680561 ], [ 19.001920366978613, -19.655755119087495 ], [ 19.003303720890099, -19.614816742678002 ], [ 19.00769400000026, -19.572646 ], [ 19.085447000000176, -19.52618 ], [ 19.214268000000363, -19.494808 ], [ 19.20260100000041, -19.413447 ], [ 19.208916000000318, -19.355391999999856 ], [ 19.202903000000354, -19.284136999999898 ], [ 19.203907076259249, -19.214240222600203 ], [ 19.201231266336137, -19.080831932271273 ], [ 19.203718501613718, -19.000894903403996 ], [ 19.203502000000238, -18.904952999999843 ], [ 19.203347000000207, -18.806936 ], [ 18.93139, -18.791388 ], [ 18.930989000000142, -18.791729 ], [ 18.930769968864169, -18.791573628318748 ], [ 18.930619, -18.791462 ], [ 18.930752, -18.791166 ], [ 18.930654000000132, -18.791124 ], [ 18.930718762525057, -18.788389923415583 ], [ 18.93225, -18.758914 ], [ 18.957824, -18.761877 ], [ 18.97584373463658, -18.741973857569693 ], [ 18.979184142758879, -18.738253476391876 ], [ 18.995422148812811, -18.721834605043508 ], [ 19.012984016446811, -18.703985955950099 ], [ 19.02334927756203, -18.693476740513184 ], [ 19.035436827775115, -18.68118995929586 ], [ 19.045244097065119, -18.671201846003655 ], [ 19.058912623170006, -18.657252852858544 ], [ 19.067728421717092, -18.648402298120061 ], [ 19.07611535912103, -18.638982752598061 ], [ 19.082886266060186, -18.631398112548197 ], [ 19.08677753695358, -18.627035486716014 ], [ 19.091251690783846, -18.621992593310104 ], [ 19.098939572282557, -18.613397063097185 ], [ 19.108635453504675, -18.602461398828773 ], [ 19.110904350578988, -18.599927451212555 ], [ 19.113150193374192, -18.597560975036938 ], [ 19.115969906558441, -18.594600320599863 ], [ 19.118987270196826, -18.591422392857087 ], [ 19.125433352323807, -18.584587758245064 ], [ 19.127216000000118, -18.582892 ], [ 19.126564000000112, -18.582375 ], [ 19.126513000000116, -18.582347 ], [ 18.863494, -18.570028 ], [ 18.622061, -18.558445 ], [ 18.533378, -18.554124 ], [ 18.216123082528341, -18.538234905096374 ], [ 18.16019, -18.535479 ], [ 17.999001, -18.527252 ], [ 17.99903, -18.527431 ], [ 17.998423, -18.527418 ], [ 17.998348, -18.527247 ], [ 17.998305553817126, -18.527277774849786 ], [ 17.99848, -18.52823 ], [ 17.998467981142358, -18.6190009241692 ], [ 17.969097, -18.630335 ], [ 17.96512, -18.63 ], [ 17.956035, -18.633095 ], [ 17.920545372407474, -18.627140676692918 ], [ 17.914749600984074, -18.625137771983077 ], [ 17.910432148553213, -18.625208704749969 ], [ 17.871297417756129, -18.617503956912241 ], [ 17.852793482312752, -18.614033520260364 ], [ 17.837441, -18.611052 ], [ 17.838050000000138, -18.579426 ], [ 17.813033308953848, -18.577720281534486 ], [ 17.802436474296012, -18.576994190766047 ], [ 17.79612737757763, -18.576563209643556 ], [ 17.778464300713171, -18.57534767505873 ], [ 17.77129631618185, -18.574851281341633 ], [ 17.767532, -18.574555 ], [ 17.764873381696574, -18.573469890428726 ], [ 17.760454, -18.572417 ], [ 17.724235, -18.568544 ], [ 17.72313, -18.568726999999896 ], [ 17.72186, -18.568124 ], [ 17.663869, -18.561788 ], [ 17.664199, -18.509743 ], [ 17.664147, -18.509804 ], [ 17.664142, -18.509757 ], [ 17.49911, -18.500845 ], [ 17.498415, -18.515678 ], [ 17.498906, -18.515693 ], [ 17.499067000000139, -18.517259 ], [ 17.498424, -18.517225 ], [ 17.495418653453342, -18.5859199351091 ], [ 17.494726000000128, -18.603709 ], [ 17.49468300000013, -18.603718 ], [ 17.494462, -18.60383 ], [ 17.494398, -18.603857 ], [ 17.494277735260152, -18.603916638957514 ], [ 17.488071683546046, -18.604184883398016 ], [ 17.471626909135505, -18.605091471512178 ], [ 17.436434028511318, -18.6068794080477 ], [ 17.392434237877758, -18.609339536870209 ], [ 17.369922437233662, -18.610496608757593 ], [ 17.347473084727202, -18.611565381997309 ], [ 17.336920292965438, -18.612066852743681 ], [ 17.171617, -18.620324 ], [ 17.17176, -18.622804 ], [ 17.171468, -18.622788 ], [ 17.171305, -18.622737 ], [ 17.168653, -18.622893 ], [ 17.168619000000103, -18.622888 ], [ 17.168222, -18.622929 ], [ 17.168255, -18.622905 ], [ 17.167345, -18.6229 ], [ 17.167248, -18.622804 ], [ 17.166821, -18.620612 ], [ 17.161957412302304, -18.620801038491361 ], [ 17.144801, -18.62077 ], [ 17.027935, -18.620297 ], [ 17.027261000000138, -18.731022 ], [ 17.027183, -18.748289 ], [ 17.038776, -18.764908 ], [ 17.042419, -18.803444 ], [ 17.043262000000141, -18.803341 ], [ 17.043288, -18.803496 ], [ 17.043372, -18.803686 ], [ 17.061462, -18.881733 ], [ 17.077427, -18.940087 ], [ 17.124541, -19.163867 ], [ 17.127316, -19.175789 ], [ 17.127312, -19.175907 ], [ 17.127257, -19.176012 ], [ 17.127176000000148, -19.17612 ], [ 17.114737, -19.189507 ], [ 17.115847, -19.205268 ], [ 17.109735921620448, -19.212422321968187 ], [ 17.100915877609399, -19.222762658571231 ], [ 17.084479421869137, -19.241491077201619 ], [ 17.034552000000122, -19.297621 ], [ 17.012474888746528, -19.322488499899698 ], [ 16.990682, -19.346782 ], [ 16.894735, -19.389431 ], [ 16.701654830000116, -19.486848397999889 ], [ 16.599434, -19.436566 ], [ 16.485402, -19.43549 ], [ 16.40952, -19.418655 ], [ 16.355937, -19.416949 ], [ 16.230687, -19.388242999999864 ], [ 16.184361, -19.36957 ], [ 16.134737, -19.365918 ], [ 16.060522, -19.347466 ], [ 15.99331, -19.336246 ], [ 15.940901000000119, -19.330697 ], [ 15.937392, -19.330236 ], [ 15.850555556863002, -19.283916656915313 ], [ 15.791624337201192, -19.283769170958401 ], [ 15.761744029157397, -19.284672136400882 ], [ 15.702170000000132, -19.273688 ], [ 15.628235, -19.257905 ], [ 15.560451, -19.245714 ], [ 15.550816, -19.235892 ], [ 15.522844, -19.242532 ], [ 15.510420046655479, -19.245743063263248 ], [ 15.420228, -19.239132 ], [ 15.369801, -19.247824 ], [ 15.31418, -19.246168 ], [ 15.317289, -19.191497 ], [ 15.201605, -19.224494 ], [ 15.147364406387975, -19.212953160107492 ], [ 15.090014, -19.205425 ], [ 15.030933999999839, -19.208529 ], [ 14.913509153762663, -19.234963126818233 ], [ 14.871648375443463, -19.235368064873885 ], [ 14.815522082251228, -19.236422341554235 ], [ 14.687572999999544, -19.234486999999838 ], [ 14.680094419972765, -19.234416577902063 ], [ 14.675367758888775, -19.234337488231834 ], [ 14.654010479529228, -19.234211847692325 ], [ 14.649029174177279, -19.234273324904077 ], [ 14.64816617505482, -19.234363985677742 ], [ 14.634157901965594, -19.235973446343767 ], [ 14.621598784278827, -19.237363126691879 ], [ 14.616102707645931, -19.238027376008603 ], [ 14.600586446942767, -19.23978317206516 ], [ 14.586445524713339, -19.241369461858298 ], [ 14.536197999999441, -19.246788999999794 ], [ 14.538536999999444, -19.329043999999826 ], [ 14.594108999999431, -19.326708999999859 ], [ 14.587198999999375, -19.417414999999849 ], [ 14.48189999999915, -19.417581999999769 ], [ 14.474657557425299, -19.417567903485775 ], [ 14.467862999999266, -19.416635999999773 ], [ 14.449527777712639, -19.414472222198199 ], [ 14.455638887812224, -19.388749999064586 ], [ 14.455944441932013, -19.387361114531089 ], [ 14.455981880381295, -19.387222159154188 ], [ 14.456105999999195, -19.385550999999747 ], [ 14.45609699999917, -19.385394999999786 ], [ 14.456080999999108, -19.38530099999975 ], [ 14.45603799999909, -19.385128999999729 ], [ 14.456035999999092, -19.385098999999727 ], [ 14.455970999999209, -19.384975999999767 ], [ 14.455964999999056, -19.384889999999761 ], [ 14.455966999999044, -19.384624999999794 ], [ 14.456050999999068, -19.384379999999744 ], [ 14.456048999999126, -19.383976999999792 ], [ 14.455949999999085, -19.383194999999777 ], [ 14.456050999999064, -19.38305999999978 ], [ 14.455914999999179, -19.382732999999803 ], [ 14.455679999999159, -19.379401999999811 ], [ 14.455787999999156, -19.3790429999998 ], [ 14.455770999999185, -19.378707999999786 ], [ 14.45618330033834, -19.37706666145538 ], [ 14.458463999999061, -19.372067999999778 ], [ 14.458724999999198, -19.37199599999979 ], [ 14.459095999999175, -19.371371999999788 ], [ 14.459405999999259, -19.370718999999724 ], [ 14.459347999999235, -19.370457999999655 ], [ 14.460261999999192, -19.369289999999658 ], [ 14.461489999999172, -19.368156999999769 ], [ 14.465423999999079, -19.365477999999719 ], [ 14.465702999999291, -19.365427999999739 ], [ 14.465767999999112, -19.365239999999766 ], [ 14.470458999999172, -19.362063999999766 ], [ 14.471117999999166, -19.361533999999793 ], [ 14.472198999999216, -19.360298999999664 ], [ 14.480228999999317, -19.346836999999788 ], [ 14.480920999999169, -19.345346999999787 ], [ 14.481298999999179, -19.34391699999976 ], [ 14.482862999999281, -19.329772999999715 ], [ 14.482858999999342, -19.329685999999707 ], [ 14.482699172549939, -19.326999237030989 ], [ 14.482284862876796, -19.317231790657001 ], [ 14.481664999999287, -19.315805999999796 ], [ 14.477126999999149, -19.306661999999758 ], [ 14.473909999999259, -19.299496999999718 ], [ 14.473539999999204, -19.298378999999745 ], [ 14.473308999999297, -19.297214999999714 ], [ 14.473213999999263, -19.296113999999779 ], [ 14.473170999999253, -19.293375999999704 ], [ 14.473258999999246, -19.293264999999749 ], [ 14.473154999999355, -19.292885999999736 ], [ 14.472954999999283, -19.284242999999787 ], [ 14.472786999999249, -19.283880999999745 ], [ 14.472491999999196, -19.283411999999785 ], [ 14.471913999999298, -19.282983999999786 ], [ 14.471244999999229, -19.282480999999812 ], [ 14.468320999999213, -19.28113899999973 ], [ 14.467722999999292, -19.280507999999735 ], [ 14.467385999999298, -19.280195999999766 ], [ 14.46699299999927, -19.278992999999801 ], [ 14.466275999999315, -19.272240999999802 ], [ 14.466091999999147, -19.272054999999749 ], [ 14.465201999999238, -19.270428999999698 ], [ 14.464103999999333, -19.26986699999976 ], [ 14.459261999999267, -19.26923499999976 ], [ 14.458414999999201, -19.268734999999779 ], [ 14.45579299999911, -19.265803999999729 ], [ 14.447684999999217, -19.257431999999699 ], [ 14.447634999999117, -19.256972999999689 ], [ 14.44698499999917, -19.256289999999755 ], [ 14.446083999999225, -19.255752999999789 ], [ 14.44454899999922, -19.254278999999752 ], [ 14.439932999999215, -19.249626999999737 ], [ 14.439442999999152, -19.248897999999713 ], [ 14.438705999999291, -19.248385999999691 ], [ 14.436484999999157, -19.246595999999752 ], [ 14.436170999999156, -19.245968999999757 ], [ 14.434958999999258, -19.245288999999772 ], [ 14.434260999999189, -19.245073999999754 ], [ 14.433140999999061, -19.244840999999774 ], [ 14.42537499999923, -19.244759999999726 ], [ 14.422574999999178, -19.244614999999705 ], [ 14.421169999999245, -19.24437599999974 ], [ 14.420319999999077, -19.244024999999709 ], [ 14.419470999999177, -19.243346999999673 ], [ 14.418327999999088, -19.242250999999751 ], [ 14.417826999999228, -19.241006999999758 ], [ 14.417760999999127, -19.241037999999747 ], [ 14.417916999999232, -19.242343999999751 ], [ 14.419268999999165, -19.244019999999669 ], [ 14.416803999999122, -19.244772999999707 ], [ 14.416817999999031, -19.244791999999766 ], [ 14.387536999999041, -19.247592999999718 ], [ 14.385277999998996, -19.247537999999746 ], [ 14.383057999999149, -19.246012999999717 ], [ 14.361616999999098, -19.256842999999702 ], [ 14.351603589278023, -19.297213247942018 ], [ 14.341649999998905, -19.339518999999612 ], [ 14.34007999999883, -19.346571999999664 ], [ 14.338885999998809, -19.348067999999621 ], [ 14.337277999998777, -19.349601999999621 ], [ 14.335689999998854, -19.351798999999712 ], [ 14.33416999999881, -19.353143999999617 ], [ 14.333483842217612, -19.354355128372749 ], [ 14.332164999998863, -19.356682999999602 ], [ 14.336850000025185, -19.362149997229803 ], [ 14.331089999998865, -19.392624999999629 ], [ 14.332085999998855, -19.401456999999606 ], [ 14.329717999998856, -19.414525999999697 ], [ 14.329686999998749, -19.420745999999625 ], [ 14.330166581077226, -19.420633361634845 ], [ 14.329527999998763, -19.423535999999618 ], [ 14.326803999998742, -19.428690999999574 ], [ 14.321601999998714, -19.429335999999651 ], [ 14.318040999998777, -19.426064999999593 ], [ 14.312564999998651, -19.424836999999673 ], [ 14.306177999998587, -19.440867999999607 ], [ 14.308706999998581, -19.446219999999588 ], [ 14.309739999998659, -19.448924999999569 ], [ 14.312821999998556, -19.451929999999614 ], [ 14.310516999998629, -19.4571939999996 ], [ 14.308099999998634, -19.457933999999625 ], [ 14.306199999998652, -19.45960999999966 ], [ 14.306368999998559, -19.463518999999593 ], [ 14.307066999998614, -19.46528999999963 ], [ 14.306212999998651, -19.466520999999656 ], [ 14.305053999998671, -19.473074999999643 ], [ 14.307770999998583, -19.48100899999962 ], [ 14.307974999998581, -19.482507999999584 ], [ 14.30777299999858, -19.484861999999669 ], [ 14.306723999998598, -19.48716299999964 ], [ 14.305923999998681, -19.490981999999619 ], [ 14.306072999998605, -19.494447999999576 ], [ 14.306775999998642, -19.497138999999642 ], [ 14.305747999998664, -19.502905999999587 ], [ 14.30362599999861, -19.50414199999965 ], [ 14.303557999998661, -19.506016999999638 ], [ 14.298713999998599, -19.513658999999613 ], [ 14.296461999998586, -19.517952999999611 ], [ 14.299278999998565, -19.53236199999963 ], [ 14.29893999999862, -19.53520099999961 ], [ 14.300496999998451, -19.537265999999576 ], [ 14.303928999998622, -19.543675999999657 ], [ 14.3036339999985, -19.546141999999563 ], [ 14.302415999998606, -19.548512999999662 ], [ 14.303269999998548, -19.552845999999587 ], [ 14.300809999998618, -19.558453999999632 ], [ 14.299929999998614, -19.562544999999641 ], [ 14.297394999998467, -19.568913999999648 ], [ 14.29524399999846, -19.57860099999964 ], [ 14.29322299999855, -19.585306999999638 ], [ 14.290747999998363, -19.588877999999596 ], [ 14.290482999998455, -19.592145999999641 ], [ 14.291171999998484, -19.592917999999578 ], [ 14.288812999998511, -19.598628999999598 ], [ 14.285451999998395, -19.604381999999628 ], [ 14.285011999998357, -19.6081219999996 ], [ 14.285077999998363, -19.609774999999651 ], [ 14.284769999998451, -19.613422999999642 ], [ 14.285817999998494, -19.61713999999964 ], [ 14.286462999998333, -19.620346999999594 ], [ 14.285690999998407, -19.621504999999644 ], [ 14.284346999998432, -19.629001999999634 ], [ 14.283110999998463, -19.630713999999632 ], [ 14.283177999998298, -19.633065999999552 ], [ 14.280544999998407, -19.63651399999954 ], [ 14.279098999998292, -19.639046999999628 ], [ 14.275103999998302, -19.643537999999591 ], [ 14.270905999998408, -19.649791999999593 ], [ 14.27054542661525, -19.651659440095532 ], [ 14.270298802481571, -19.65325560928051 ], [ 14.269279432899154, -19.659232481921265 ], [ 14.269033967380921, -19.661224054448663 ], [ 14.268980892969852, -19.661313943126107 ], [ 14.268879999998269, -19.661347999999581 ], [ 14.260677999998128, -19.661439999999565 ], [ 14.256619999998298, -19.659728999999572 ], [ 14.256112999998276, -19.659403999999608 ], [ 14.254498999998312, -19.657397999999596 ], [ 14.253478999998265, -19.656550999999521 ], [ 14.253446999998291, -19.656586999999604 ], [ 14.25331599999827, -19.65682799999961 ], [ 14.251438999998225, -19.656067999999589 ], [ 14.248267999998207, -19.655655999999606 ], [ 14.247444444800987, -19.664722222064693 ], [ 14.247448999998278, -19.664723999999559 ], [ 14.243621999998117, -19.676966999999504 ], [ 14.242603999998135, -19.680794999999499 ], [ 14.23218299999805, -19.68483799999952 ], [ 14.207592939997877, -19.740933281999492 ], [ 14.19252299999776, -19.741324999999527 ], [ 14.191099999997764, -19.74524299999954 ], [ 14.191249999997781, -19.746922999999452 ], [ 14.19186999999769, -19.749700999999533 ], [ 14.190702999997788, -19.753820999999547 ], [ 14.19030899999786, -19.757048999999448 ], [ 14.187953999997644, -19.759861999999519 ], [ 14.188958999997686, -19.760751999999538 ], [ 14.188401999997771, -19.762899999999512 ], [ 14.184433999997699, -19.772916999999403 ], [ 14.184087999997697, -19.776880999999463 ], [ 14.18473499999773, -19.779799999999472 ], [ 14.184484999997659, -19.781178999999455 ], [ 14.184580999997598, -19.783865999999367 ], [ 14.185388999997651, -19.784782999999518 ], [ 14.18474399999775, -19.787062999999488 ], [ 14.185057999997802, -19.789681999999466 ], [ 14.184915999997589, -19.791909999999522 ], [ 14.184265999997633, -19.792872999999425 ], [ 14.184680999997717, -19.793924999999508 ], [ 14.182596999997747, -19.796527999999526 ], [ 14.181296999997663, -19.796744999999429 ], [ 14.17893099999759, -19.800477999999504 ], [ 14.175492999997713, -19.801381999999492 ], [ 14.174545999997655, -19.802038999999468 ], [ 14.172625999997599, -19.808188999999405 ], [ 14.173206999997563, -19.809472999999507 ], [ 14.17001199999765, -19.813075999999455 ], [ 14.165864999997499, -19.822140999999373 ], [ 14.164651647442739, -19.822658525067748 ], [ 14.162182514416559, -19.823880011386429 ], [ 14.160199778885772, -19.824989814901791 ], [ 14.156515999997525, -19.826979999999402 ], [ 14.148175999997296, -19.831260999999323 ], [ 14.147671999997371, -19.831602999999355 ], [ 14.14048299999739, -19.835395999999388 ], [ 14.137366676535656, -19.83538332949184 ], [ 14.095099975282675, -19.841816662288295 ], [ 14.08902899999693, -19.84629299999937 ], [ 14.088087999997011, -19.849475999999289 ], [ 14.083323999996956, -19.852348999999293 ], [ 14.081488999996848, -19.852311999999333 ], [ 14.080190999996887, -19.852359999999329 ], [ 14.077167999996874, -19.852545999999357 ], [ 14.073629999996836, -19.852675999999246 ], [ 14.071890999996857, -19.852110999999308 ], [ 14.070078999996817, -19.85173899999932 ], [ 14.061550999996728, -19.849176999999251 ], [ 14.057880999996767, -19.848505999999237 ], [ 14.054967980118979, -19.84575553498232 ], [ 14.053488999996812, -19.844480999999259 ], [ 14.047611999996697, -19.844045999999285 ], [ 14.045545999996612, -19.844762999999229 ], [ 14.04277699999664, -19.844736999999292 ], [ 14.036841999996513, -19.842020999999182 ], [ 14.031599999996519, -19.842590999999178 ], [ 14.031186999996425, -19.84241499999926 ], [ 14.029704999996557, -19.842996999999272 ], [ 14.0291299999966, -19.843401999999219 ], [ 14.027847999996533, -19.843675999999263 ], [ 14.023886999996549, -19.843659999999236 ], [ 14.020974999996424, -19.844313999999169 ], [ 14.019504999996492, -19.843812999999191 ], [ 14.017035999996443, -19.845536999999204 ], [ 14.016285999996386, -19.845671999999141 ], [ 14.011732999996367, -19.846075999999183 ], [ 14.008550999996297, -19.846445999999212 ], [ 13.989568999996248, -19.847974999999117 ], [ 13.983958999996137, -19.849024999999131 ], [ 13.98332899999607, -19.849931999999097 ], [ 13.981823999996049, -19.849990999999129 ], [ 13.979442999996024, -19.849459999999162 ], [ 13.977687999996101, -19.851727999999113 ], [ 13.976303999995942, -19.853795999999072 ], [ 13.975589999996041, -19.856418999999157 ], [ 13.972229999996012, -19.857512999999049 ], [ 13.968851999995882, -19.857609999999141 ], [ 13.9665359999959, -19.859182999999085 ], [ 13.961234999995794, -19.86678399999909 ], [ 13.950777999995768, -19.874292999999096 ], [ 13.949244999995674, -19.880246999999017 ], [ 13.949060999995734, -19.883054999999082 ], [ 13.948956999995643, -19.884069999999092 ], [ 13.948748999995658, -19.884252999998996 ], [ 13.943621999995591, -19.888798999999 ], [ 13.933217999995472, -19.896579999999002 ], [ 13.921105999995383, -19.896487999998911 ], [ 13.910342999995198, -19.902003999998946 ], [ 13.908446999995189, -19.9018619999989 ], [ 13.906440999995127, -19.898722999998967 ], [ 13.904200999995187, -19.896756999998921 ], [ 13.897370999995077, -19.89664899999897 ], [ 13.892873999995064, -19.897882999998892 ], [ 13.890659999995009, -19.89967399999891 ], [ 13.888408999995082, -19.902615999998822 ], [ 13.882544999994913, -19.904467999998896 ], [ 13.879977999994951, -19.903356999998902 ], [ 13.877921999994824, -19.903627999998854 ], [ 13.87794299999493, -19.911678999998866 ], [ 13.872842999994775, -19.917280999998809 ], [ 13.867232999994643, -19.91861499999877 ], [ 13.864502999994688, -19.920285999998818 ], [ 13.863474999994546, -19.921266999998821 ], [ 13.860180999994606, -19.928799999998837 ], [ 13.859527999994587, -19.932104999998742 ], [ 13.855647999994437, -19.933333999998826 ], [ 13.845022999994351, -19.937749999998783 ], [ 13.833424999994167, -19.932711999998734 ], [ 13.829551999994118, -19.932504999998734 ], [ 13.82658299999407, -19.933527999998692 ], [ 13.822157999993971, -19.933209999998684 ], [ 13.821195999993943, -19.933720999998638 ], [ 13.820528999994016, -19.938136999998637 ], [ 13.816791999994001, -19.944898999998653 ], [ 13.816893999993905, -19.94873699999869 ], [ 13.819825999994041, -19.952170999998735 ], [ 13.826888999994093, -19.957310999998672 ], [ 13.838326999994143, -19.972300999998726 ], [ 13.841603999994254, -19.974588999998705 ], [ 13.845198742697375, -19.988076862427707 ], [ 13.845422183985111, -19.988756094236653 ], [ 13.846265999994181, -19.992080999998777 ], [ 13.846297999994185, -19.99208399999878 ], [ 13.847679573466928, -19.994721865349341 ], [ 13.847989840916012, -19.995271674292191 ], [ 13.853968971363582, -20.006843622990047 ], [ 13.855485064011972, -20.009852214946552 ], [ 13.857581769564938, -20.013798551801202 ], [ 13.860701081448129, -20.019830967692606 ], [ 13.872280999994391, -20.04189199999886 ], [ 13.879717999994472, -20.04501399999889 ], [ 13.895923999994686, -20.042073999998941 ], [ 13.900594999994761, -20.041768999998951 ], [ 13.903178999994864, -20.039513999998896 ], [ 13.905761999994818, -20.039287999998962 ], [ 13.909528999994851, -20.039850999998972 ], [ 13.909734999994864, -20.039938999998963 ], [ 13.918799999995061, -20.03703799999899 ], [ 13.923976999995009, -20.036313999998956 ], [ 13.927198999995163, -20.036668999999026 ], [ 13.931558999995167, -20.037937999998967 ], [ 13.934200999995104, -20.039078999999042 ], [ 13.938192999995241, -20.040506999998925 ], [ 13.942358999995193, -20.040635999998926 ], [ 13.94489899999521, -20.044130999998945 ], [ 13.947431999995208, -20.044177999998993 ], [ 13.949173999995331, -20.044839999999109 ], [ 13.950039999995408, -20.048086999999075 ], [ 13.949938999995375, -20.049598999999013 ], [ 13.950200999995388, -20.054008999999024 ], [ 13.94679899999524, -20.056911999999084 ], [ 13.946282999995342, -20.05887199999907 ], [ 13.943772999995291, -20.061330999999065 ], [ 13.941950999995171, -20.064880999999037 ], [ 13.944391803642869, -20.06684792497542 ], [ 13.945409999995194, -20.067690999999073 ], [ 13.948179999995208, -20.077910999999077 ], [ 13.947713564754537, -20.082920898504085 ], [ 13.947152999995144, -20.088198999998976 ], [ 13.947107999995136, -20.088165999999006 ], [ 13.944875999995144, -20.100290999999054 ], [ 13.943681999995128, -20.102972999999071 ], [ 13.943568999995092, -20.108917999999068 ], [ 13.94388499999523, -20.113340999999036 ], [ 13.942180999995079, -20.115216999999046 ], [ 13.939077999995027, -20.115679999999035 ], [ 13.935662646799754, -20.116698943477569 ], [ 13.932155032327755, -20.117873354110593 ], [ 13.924258999994839, -20.120321999999003 ], [ 13.921573113508501, -20.119104249238042 ], [ 13.915307999994736, -20.116428999998977 ], [ 13.913258999994811, -20.117016999998896 ], [ 13.912271999994669, -20.119520999999011 ], [ 13.9106349999947, -20.120296999998967 ], [ 13.908149999994617, -20.121231999998937 ], [ 13.907177999994621, -20.123044999998967 ], [ 13.904009999994683, -20.123096999998999 ], [ 13.903363263729991, -20.123230463039981 ], [ 13.903097999994687, -20.123338999998957 ], [ 13.902318072327544, -20.124164016756449 ], [ 13.901159999994558, -20.12597099999882 ], [ 13.90171399999452, -20.128688999998896 ], [ 13.902573999994615, -20.133128999998956 ], [ 13.90103899999454, -20.13459999999893 ], [ 13.900962540100496, -20.134751627327471 ], [ 13.901078685916398, -20.135137287499084 ], [ 13.901719999994521, -20.136160999998943 ], [ 13.902115999994539, -20.136974999998959 ], [ 13.902963999994613, -20.137560999998907 ], [ 13.903455999994554, -20.138318999998962 ], [ 13.903828486110726, -20.138622603400108 ], [ 13.904088322094559, -20.13883438746868 ], [ 13.904477999994597, -20.139151999998926 ], [ 13.90545799999453, -20.139902999998959 ], [ 13.90553699999456, -20.140637999998958 ], [ 13.907539602168354, -20.142751720653052 ], [ 13.907573999994652, -20.142905999998941 ], [ 13.907502011514371, -20.14309944147648 ], [ 13.905151999994597, -20.145061999998898 ], [ 13.903172999994611, -20.14835999999892 ], [ 13.903160081213294, -20.14864449359272 ], [ 13.903148680831752, -20.149062067945305 ], [ 13.903164255869592, -20.149874019173602 ], [ 13.90325215009633, -20.150544006118356 ], [ 13.903393485122836, -20.150814874471063 ], [ 13.903452999994514, -20.151240999998961 ], [ 13.903381999994517, -20.151980999998948 ], [ 13.905378999994539, -20.153867999998965 ], [ 13.907969999994533, -20.155175999998885 ], [ 13.911113999994669, -20.153306999998964 ], [ 13.916826999994742, -20.152691999998986 ], [ 13.919479999994731, -20.154440999999018 ], [ 13.921714999994743, -20.15441799999903 ], [ 13.925987999994778, -20.155524999999027 ], [ 13.931978999994854, -20.155422999999029 ], [ 13.933946999994888, -20.155895999999046 ], [ 13.935666999995028, -20.158379999999063 ], [ 13.934152999994957, -20.162726999998991 ], [ 13.933956999994937, -20.165483999999019 ], [ 13.9340609999948, -20.167444999999024 ], [ 13.929663999994917, -20.167990999999056 ], [ 13.928455999994773, -20.16996499999895 ], [ 13.926968999994815, -20.170080999998941 ], [ 13.928039999994853, -20.172215999998954 ], [ 13.927974999994772, -20.174043999998929 ], [ 13.928785999994908, -20.175364999999026 ], [ 13.930765999994794, -20.17708399999896 ], [ 13.932062999994843, -20.180120999998959 ], [ 13.933541999994805, -20.181233999999058 ], [ 13.934492999994829, -20.183755999999029 ], [ 13.934484999994865, -20.18605399999905 ], [ 13.937929999994845, -20.187679999999052 ], [ 13.941383999994866, -20.190605999999054 ], [ 13.943447999994902, -20.194702999999002 ], [ 13.941676999994908, -20.195489999998994 ], [ 13.936337999994814, -20.196514999999046 ], [ 13.93532499999481, -20.198905999999035 ], [ 13.933335999994773, -20.199312999999051 ], [ 13.93133099999476, -20.200316999998968 ], [ 13.927962999994804, -20.201786999998991 ], [ 13.92677799999475, -20.204567999998964 ], [ 13.92607099999471, -20.209432999999002 ], [ 13.926226999994633, -20.21165599999896 ], [ 13.926743999994761, -20.21328099999895 ], [ 13.919770999994704, -20.218116999998966 ], [ 13.918115999994473, -20.22403199999896 ], [ 13.906269999994366, -20.231071999998946 ], [ 13.902676999994409, -20.231897999998903 ], [ 13.891211999994173, -20.233078999998927 ], [ 13.883774999994053, -20.232970999998916 ], [ 13.88321799999405, -20.231564999998913 ], [ 13.876976999993973, -20.232927999998896 ], [ 13.863968999993791, -20.232867999998835 ], [ 13.851828999993627, -20.232399999998815 ], [ 13.834432999993377, -20.232010999998749 ], [ 13.830439999993304, -20.232426999998726 ], [ 13.825354999993218, -20.233169999998729 ], [ 13.819402365611005, -20.233290339924416 ], [ 13.806821999992927, -20.23354399999867 ], [ 13.80361499999289, -20.23263499999867 ], [ 13.794200065593541, -20.236981612943762 ], [ 13.749425999991923, -20.257311999998485 ], [ 13.742632999991784, -20.257065999998456 ], [ 13.735445999991729, -20.254418999998329 ], [ 13.681396999990515, -20.280836999998147 ], [ 13.658637999990017, -20.299646999997975 ], [ 13.618385620153768, -20.317729903920767 ], [ 13.609240999988753, -20.322045999997851 ], [ 13.579340999987902, -20.335472999997606 ], [ 13.573560999987912, -20.336729999997658 ], [ 13.550323999987164, -20.343094999997486 ], [ 13.548236999987097, -20.343525999997503 ], [ 13.538924999986973, -20.34903299999749 ], [ 13.534467999986816, -20.351903999997432 ], [ 13.532265999986629, -20.353079999997345 ], [ 13.525029999986499, -20.355566999997396 ], [ 13.521099999986312, -20.353162999997348 ], [ 13.5199049999863, -20.353128999997349 ], [ 13.519114355654692, -20.353368772093564 ], [ 13.514542999986093, -20.354754999997276 ], [ 13.504486999985845, -20.353605999997274 ], [ 13.477127999985106, -20.351806999997027 ], [ 13.474564999985063, -20.352569999997069 ], [ 13.243201524099495, -20.35862578923113 ] ] ] } }
]
}
